OBJECT_NAME,OBJECT_ID,EPOCH,MEAN_MOTION,ECCENTRICITY,INCLINATION,RA_OF_ASC_NODE,ARG_OF_PERICENTER,MEAN_ANOMALY,EPHEMERIS_TYPE,CLASSIFICATION_TYPE,NORAD_CAT_ID,ELEMENT_SET_NO,REV_AT_EPOCH,BSTAR,MEAN_MOTION_DOT,MEAN_MOTION_DDOT
FENGYUN 3D,2017-072A,2026-06-26T17:33:58.351968,14.19740326,.0002339,99.0125,152.3264,47.7980,312.3394,0,U,43010,999,44634,-.70407E-4,-.195E-5,0
NOAA 20 (JPSS-1),2017-073A,2026-06-26T17:28:58.011744,14.19513365,.0000629,98.7772,117.1062,133.0625,227.0604,0,U,43013,999,44582,.40828E-4,.42E-6,0
GOES 17,2018-022A,2026-06-26T15:32:59.809344,1.00272766,.0000691,0.9607,85.5548,24.2666,308.6865,0,U,43226,999,3051,0,-.172E-5,0
SENTINEL-3B,2018-039A,2026-06-26T17:27:25.352064,14.26737250,.0000756,98.6246,245.1228,107.4193,252.7070,0,U,43437,999,42548,.55871E-4,.92E-6,0
FENGYUN 2H,2018-050A,2026-06-26T18:03:48.490848,1.00269785,.0001684,3.0563,78.9679,123.4572,62.7379,0,U,43491,999,2953,0,-.121E-5,0
METOP-C,2018-087A,2026-06-26T17:04:00.196032,14.21514450,.0002044,98.6641,237.1405,117.4162,242.7224,0,U,43689,999,39618,.58166E-4,.84E-6,0
GEO-KOMPSAT-2A,2018-100A,2026-06-26T16:35:09.494304,1.00273003,.0002351,0.0442,150.2493,298.2576,203.3582,0,U,43823,999,2772,0,-.332E-5,0
METEOR-M2 2,2019-038A,2026-06-26T17:28:10.219584,14.24368451,.0001667,98.9145,165.1539,34.6575,325.4711,0,U,44387,999,36265,.94203E-4,.172E-5,0
ARKTIKA-M 1,2021-016A,2026-06-24T11:15:18.372960,2.00620016,.7291,63.2470,56.5720,269.9787,14.5750,0,U,47719,999,3893,0,-.298E-5,0
FENGYUN 3E,2021-062A,2026-06-26T17:09:12.754944,14.19904342,.0002782,98.7494,181.0164,70.8106,289.3371,0,U,49008,999,25793,.65557E-5,-.3E-6,0
GOES 18,2022-021A,2026-06-26T17:02:06.910080,1.00273228,.0000631,0.0071,107.0971,18.8750,267.3825,0,U,51850,999,668,0,.108E-5,0
NOAA 21 (JPSS-2),2022-150A,2026-06-26T18:15:54.268992,14.19538096,.0002204,98.7060,116.3895,138.6291,221.5053,0,U,54234,999,18790,.33243E-4,.27E-6,0
METEOSAT-12 (MTG-I1),2022-170C,2026-06-26T17:41:06.273024,1.00275402,.0003658,0.7489,24.4963,71.8286,83.4777,0,U,54743,999,1307,0,.4E-7,0
TIANMU-1 03,2023-039A,2026-06-26T18:00:13.647744,15.47544735,.0003956,97.5229,352.0956,76.4993,283.6697,0,U,55973,999,18231,.28784E-3,.14723E-3,0
TIANMU-1 04,2023-039B,2026-06-26T17:39:43.609824,15.48152872,.0004391,97.5168,351.2349,69.7968,290.3754,0,U,55974,999,18232,.29572E-3,.15455E-3,0
TIANMU-1 05,2023-039C,2026-06-26T17:33:12.108096,15.47469179,.0003948,97.5211,351.6874,91.6098,268.5604,0,U,55975,999,18229,.29357E-3,.1498E-3,0
TIANMU-1 06,2023-039D,2026-06-26T17:45:27.278784,15.48054486,.0004129,97.5220,352.3414,86.7431,273.4291,0,U,55976,999,18232,.29579E-3,.15405E-3,0
FENGYUN 3G,2023-055A,2026-06-26T16:40:15.477312,15.53034490,.0007209,49.9932,297.0202,336.2941,23.7694,0,U,56232,999,18148,.34312E-3,.21468E-3,0
METEOR-M2 3,2023-091A,2026-06-26T17:23:08.515968,14.24047499,.0004812,98.6079,232.5075,131.9788,228.1801,0,U,57166,999,15587,.20631E-4,.4E-7,0
TIANMU-1 07,2023-101A,2026-06-26T17:09:45.346752,15.29912244,.0004342,97.2594,228.1646,102.0222,258.1506,0,U,57399,999,16310,.20874E-3,.5972E-4,0
TIANMU-1 08,2023-101B,2026-06-26T17:55:51.980160,15.29917273,.0005688,97.2582,227.9650,92.2484,267.9408,0,U,57400,999,16310,.2229E-3,.6385E-4,0
TIANMU-1 09,2023-101C,2026-06-26T17:31:41.619648,15.29951332,.000489,97.2539,227.3596,105.6522,254.5259,0,U,57401,999,16310,.21604E-3,.6192E-4,0
TIANMU-1 10,2023-101D,2026-06-26T16:45:21.220992,15.29922952,.0006449,97.2620,228.3883,101.9721,258.2243,0,U,57402,999,16309,.22529E-3,.6456E-4,0
FENGYUN 3F,2023-111A,2026-06-26T18:27:11.970720,14.19940520,.000155,98.6834,247.5990,86.2340,273.9013,0,U,57490,999,15022,.33391E-4,.28E-6,0
ARKTIKA-M 2,2023-198A,2026-06-23T17:46:44.121216,2.00611379,.69049491,63.2421,153.6337,267.3888,18.7567,0,U,58584,999,1845,0,.167E-5,0
TIANMU-1 11,2023-205A,2026-06-26T18:02:27.370752,15.27088005,.000779,97.3445,199.1584,342.6224,17.4747,0,U,58645,999,13898,.21286E-3,.5587E-4,0
TIANMU-1 12,2023-205B,2026-06-26T12:37:00.923232,15.27053512,.0005656,97.3433,198.6898,327.1356,32.9531,0,U,58646,999,13893,.22975E-3,.6028E-4,0
TIANMU-1 13,2023-205C,2026-06-26T16:33:23.355360,15.26906826,.000505,97.3461,199.1254,299.4029,60.6705,0,U,58647,999,13895,.21367E-3,.5575E-4,0
TIANMU-1 14,2023-205D,2026-06-26T17:46:03.139104,15.26952503,.0005933,97.3397,198.3494,305.0882,54.9800,0,U,58648,999,13896,.22237E-3,.5814E-4,0
TIANMU-1 19,2023-208A,2026-06-26T18:14:29.755104,15.31710765,.0003436,97.4510,294.1094,281.5114,78.5742,0,U,58660,999,13879,.26578E-3,.8061E-4,0
TIANMU-1 20,2023-208B,2026-06-26T15:50:13.144704,15.32898737,.0005576,97.4451,294.6538,292.3834,67.6817,0,U,58661,999,13887,.26135E-3,.8229E-4,0
